IRIDIUM 106             
1 41917U 17003A   25279.27762143  .00000618  00000+0  21374-3 0  9994
2 41917  86.4038 194.6022 0002374  71.6384 288.5070 14.34216585456815
IRIDIUM 103             
1 41918U 17003B   25279.26493645  .00000413  00000+0  14040-3 0  9997
2 41918  86.4039 194.5082 0002687  85.1670 274.9833 14.34217056456839
IRIDIUM 109             
1 41919U 17003C   25279.48055577  .00000496  00000+0  17004-3 0  9994
2 41919  86.4037 194.4738 0002286  85.9238 274.2219 14.34226667456837
IRIDIUM 102             
1 41920U 17003D   25279.72793371  .00000462  00000+0  15789-3 0  9995
2 41920  86.4041 194.2998 0002164  84.2673 275.8770 14.34220116456955
IRIDIUM 105             
1 41921U 17003E   25279.90806712  .00000447  00000+0  15247-3 0  9992
2 41921  86.4026 162.7397 0002277  84.8265 275.3190 14.34227919458838
IRIDIUM 104             
1 41922U 17003F   25280.01969906  .00000342  00000+0  11496-3 0  9998
2 41922  86.4038 194.2168 0002386  91.4259 268.7210 14.34215429456982
IRIDIUM 114             
1 41923U 17003G   25279.74697363  .00000376  00000+0  12707-3 0  9995
2 41923  86.4036 194.3146 0002412  83.9249 276.2222 14.34217119456922
IRIDIUM 108             
1 41924U 17003H   25279.91479778  .00000353  00000+0  11907-3 0  9999
2 41924  86.4020 162.6312 0001948  80.7820 279.3596 14.34216986458800
