<?xml version="1.0" encoding="UTF-8"?>
<ndm xmlns:xsi="http://www.w3.org/2001/XMLSchema-instance" xsi:noNamespaceSchemaLocation="https://sanaregistry.org/r/ndmxml_unqualified/ndmxml-2.0.0-master-2.0.xsd">
<omm id="CCSDS_OMM_VERS" version="2.0">
<header><CREATION_DATE/><ORIGINATOR/></header><body><segment><metadata><OBJECT_NAME>IRIDIUM 106</OBJECT_NAME><OBJECT_ID>2017-003A</OBJECT_ID><CENTER_NAME>EARTH</CENTER_NAME><REF_FRAME>TEME</REF_FRAME><TIME_SYSTEM>UTC</TIME_SYSTEM><MEAN_ELEMENT_THEORY>SGP4</MEAN_ELEMENT_THEORY></metadata><data><meanElements><EPOCH>2025-10-06T06:39:46.491552</EPOCH><MEAN_MOTION>14.34216585</MEAN_MOTION><ECCENTRICITY>.00023747</ECCENTRICITY><INCLINATION>86.4038</INCLINATION><RA_OF_ASC_NODE>194.6022</RA_OF_ASC_NODE><ARG_OF_PERICENTER>71.6384</ARG_OF_PERICENTER><MEAN_ANOMALY>288.5070</MEAN_ANOMALY></meanElements><tleParameters><EPHEMERIS_TYPE>0</EPHEMERIS_TYPE><CLASSIFICATION_TYPE>U</CLASSIFICATION_TYPE><NORAD_CAT_ID>41917</NORAD_CAT_ID><ELEMENT_SET_NO>999</ELEMENT_SET_NO><REV_AT_EPOCH>45681</REV_AT_EPOCH><BSTAR>.21374055E-3</BSTAR><MEAN_MOTION_DOT>.618E-5</MEAN_MOTION_DOT><MEAN_MOTION_DDOT>0</MEAN_MOTION_DDOT></tleParameters></data></segment></body></omm>
<omm id="CCSDS_OMM_VERS" version="2.0">
<header><CREATION_DATE/><ORIGINATOR/></header><body><segment><metadata><OBJECT_NAME>IRIDIUM 103</OBJECT_NAME><OBJECT_ID>2017-003B</OBJECT_ID><CENTER_NAME>EARTH</CENTER_NAME><REF_FRAME>TEME</REF_FRAME><TIME_SYSTEM>UTC</TIME_SYSTEM><MEAN_ELEMENT_THEORY>SGP4</MEAN_ELEMENT_THEORY></metadata><data><meanElements><EPOCH>2025-10-06T06:21:30.509280</EPOCH><MEAN_MOTION>14.34217056</MEAN_MOTION><ECCENTRICITY>.0002687</ECCENTRICITY><INCLINATION>86.4039</INCLINATION><RA_OF_ASC_NODE>194.5082</RA_OF_ASC_NODE><ARG_OF_PERICENTER>85.1670</ARG_OF_PERICENTER><MEAN_ANOMALY>274.9833</MEAN_ANOMALY></meanElements><tleParameters><EPHEMERIS_TYPE>0</EPHEMERIS_TYPE><CLASSIFICATION_TYPE>U</CLASSIFICATION_TYPE><NORAD_CAT_ID>41918</NORAD_CAT_ID><ELEMENT_SET_NO>999</ELEMENT_SET_NO><REV_AT_EPOCH>45683</REV_AT_EPOCH><BSTAR>.14039695E-3</BSTAR><MEAN_MOTION_DOT>.413E-5</MEAN_MOTION_DOT><MEAN_MOTION_DDOT>0</MEAN_MOTION_DDOT></tleParameters></data></segment></body></omm>
<omm id="CCSDS_OMM_VERS" version="2.0">
<header><CREATION_DATE/><ORIGINATOR/></header><body><segment><metadata><OBJECT_NAME>IRIDIUM 109</OBJECT_NAME><OBJECT_ID>2017-003C</OBJECT_ID><CENTER_NAME>EARTH</CENTER_NAME><REF_FRAME>TEME</REF_FRAME><TIME_SYSTEM>UTC</TIME_SYSTEM><MEAN_ELEMENT_THEORY>SGP4</MEAN_ELEMENT_THEORY></metadata><data><meanElements><EPOCH>2025-10-06T11:32:00.018528</EPOCH><MEAN_MOTION>14.34226667</MEAN_MOTION><ECCENTRICITY>.00022867</ECCENTRICITY><INCLINATION>86.4037</INCLINATION><RA_OF_ASC_NODE>194.4738</RA_OF_ASC_NODE><ARG_OF_PERICENTER>85.9238</ARG_OF_PERICENTER><MEAN_ANOMALY>274.2219</MEAN_ANOMALY></meanElements><tleParameters><EPHEMERIS_TYPE>0</EPHEMERIS_TYPE><CLASSIFICATION_TYPE>U</CLASSIFICATION_TYPE><NORAD_CAT_ID>41919</NORAD_CAT_ID><ELEMENT_SET_NO>999</ELEMENT_SET_NO><REV_AT_EPOCH>45683</REV_AT_EPOCH><BSTAR>.17003621E-3</BSTAR><MEAN_MOTION_DOT>.496E-5</MEAN_MOTION_DOT><MEAN_MOTION_DDOT>0</MEAN_MOTION_DDOT></tleParameters></data></segment></body></omm>
<omm id="CCSDS_OMM_VERS" version="2.0">
<header><CREATION_DATE/><ORIGINATOR/></header><body><segment><metadata><OBJECT_NAME>IRIDIUM 102</OBJECT_NAME><OBJECT_ID>2017-003D</OBJECT_ID><CENTER_NAME>EARTH</CENTER_NAME><REF_FRAME>TEME</REF_FRAME><TIME_SYSTEM>UTC</TIME_SYSTEM><MEAN_ELEMENT_THEORY>SGP4</MEAN_ELEMENT_THEORY></metadata><data><meanElements><EPOCH>2025-10-06T17:28:13.472544</EPOCH><MEAN_MOTION>14.34220116</MEAN_MOTION><ECCENTRICITY>.00021647</ECCENTRICITY><INCLINATION>86.4041</INCLINATION><RA_OF_ASC_NODE>194.2998</RA_OF_ASC_NODE><ARG_OF_PERICENTER>84.2673</ARG_OF_PERICENTER><MEAN_ANOMALY>275.8770</MEAN_ANOMALY></meanElements><tleParameters><EPHEMERIS_TYPE>0</EPHEMERIS_TYPE><CLASSIFICATION_TYPE>U</CLASSIFICATION_TYPE><NORAD_CAT_ID>41920</NORAD_CAT_ID><ELEMENT_SET_NO>999</ELEMENT_SET_NO><REV_AT_EPOCH>45695</REV_AT_EPOCH><BSTAR>.15789295E-3</BSTAR><MEAN_MOTION_DOT>.462E-5</MEAN_MOTION_DOT><MEAN_MOTION_DDOT>0</MEAN_MOTION_DDOT></tleParameters></data></segment></body></omm>
<omm id="CCSDS_OMM_VERS" version="2.0">
<header><CREATION_DATE/><ORIGINATOR/></header><body><segment><metadata><OBJECT_NAME>IRIDIUM 105</OBJECT_NAME><OBJECT_ID>2017-003E</OBJECT_ID><CENTER_NAME>EARTH</CENTER_NAME><REF_FRAME>TEME</REF_FRAME><TIME_SYSTEM>UTC</TIME_SYSTEM><MEAN_ELEMENT_THEORY>SGP4</MEAN_ELEMENT_THEORY></metadata><data><meanElements><EPOCH>2025-10-06T21:47:36.999168</EPOCH><MEAN_MOTION>14.34227919</MEAN_MOTION><ECCENTRICITY>.00022779</ECCENTRICITY><INCLINATION>86.4026</INCLINATION><RA_OF_ASC_NODE>162.7397</RA_OF_ASC_NODE><ARG_OF_PERICENTER>84.8265</ARG_OF_PERICENTER><MEAN_ANOMALY>275.3190</MEAN_ANOMALY></meanElements><tleParameters><EPHEMERIS_TYPE>0</EPHEMERIS_TYPE><CLASSIFICATION_TYPE>U</CLASSIFICATION_TYPE><NORAD_CAT_ID>41921</NORAD_CAT_ID><ELEMENT_SET_NO>999</ELEMENT_SET_NO><REV_AT_EPOCH>45883</REV_AT_EPOCH><BSTAR>.15247087E-3</BSTAR><MEAN_MOTION_DOT>.447E-5</MEAN_MOTION_DOT><MEAN_MOTION_DDOT>0</MEAN_MOTION_DDOT></tleParameters></data></segment></body></omm>
<omm id="CCSDS_OMM_VERS" version="2.0">
<header><CREATION_DATE/><ORIGINATOR/></header><body><segment><metadata><OBJECT_NAME>IRIDIUM 104</OBJECT_NAME><OBJECT_ID>2017-003F</OBJECT_ID><CENTER_NAME>EARTH</CENTER_NAME><REF_FRAME>TEME</REF_FRAME><TIME_SYSTEM>UTC</TIME_SYSTEM><MEAN_ELEMENT_THEORY>SGP4</MEAN_ELEMENT_THEORY></metadata><data><meanElements><EPOCH>2025-10-07T00:28:21.998784</EPOCH><MEAN_MOTION>14.34215429</MEAN_MOTION><ECCENTRICITY>.00023863</ECCENTRICITY><INCLINATION>86.4038</INCLINATION><RA_OF_ASC_NODE>194.2168</RA_OF_ASC_NODE><ARG_OF_PERICENTER>91.4259</ARG_OF_PERICENTER><MEAN_ANOMALY>268.7210</MEAN_ANOMALY></meanElements><tleParameters><EPHEMERIS_TYPE>0</EPHEMERIS_TYPE><CLASSIFICATION_TYPE>U</CLASSIFICATION_TYPE><NORAD_CAT_ID>41922</NORAD_CAT_ID><ELEMENT_SET_NO>999</ELEMENT_SET_NO><REV_AT_EPOCH>45698</REV_AT_EPOCH><BSTAR>.1149554E-3</BSTAR><MEAN_MOTION_DOT>.342E-5</MEAN_MOTION_DOT><MEAN_MOTION_DDOT>0</MEAN_MOTION_DDOT></tleParameters></data></segment></body></omm>
<omm id="CCSDS_OMM_VERS" version="2.0">
<header><CREATION_DATE/><ORIGINATOR/></header><body><segment><metadata><OBJECT_NAME>IRIDIUM 114</OBJECT_NAME><OBJECT_ID>2017-003G</OBJECT_ID><CENTER_NAME>EARTH</CENTER_NAME><REF_FRAME>TEME</REF_FRAME><TIME_SYSTEM>UTC</TIME_SYSTEM><MEAN_ELEMENT_THEORY>SGP4</MEAN_ELEMENT_THEORY></metadata><data><meanElements><EPOCH>2025-10-06T17:55:38.521632</EPOCH><MEAN_MOTION>14.34217119</MEAN_MOTION><ECCENTRICITY>.00024127</ECCENTRICITY><INCLINATION>86.4036</INCLINATION><RA_OF_ASC_NODE>194.3146</RA_OF_ASC_NODE><ARG_OF_PERICENTER>83.9249</ARG_OF_PERICENTER><MEAN_ANOMALY>276.2222</MEAN_ANOMALY></meanElements><tleParameters><EPHEMERIS_TYPE>0</EPHEMERIS_TYPE><CLASSIFICATION_TYPE>U</CLASSIFICATION_TYPE><NORAD_CAT_ID>41923</NORAD_CAT_ID><ELEMENT_SET_NO>999</ELEMENT_SET_NO><REV_AT_EPOCH>45692</REV_AT_EPOCH><BSTAR>.12706613E-3</BSTAR><MEAN_MOTION_DOT>.376E-5</MEAN_MOTION_DOT><MEAN_MOTION_DDOT>0</MEAN_MOTION_DDOT></tleParameters></data></segment></body></omm>
<omm id="CCSDS_OMM_VERS" version="2.0">
<header><CREATION_DATE/><ORIGINATOR/></header><body><segment><metadata><OBJECT_NAME>IRIDIUM 108</OBJECT_NAME><OBJECT_ID>2017-003H</OBJECT_ID><CENTER_NAME>EARTH</CENTER_NAME><REF_FRAME>TEME</REF_FRAME><TIME_SYSTEM>UTC</TIME_SYSTEM><MEAN_ELEMENT_THEORY>SGP4</MEAN_ELEMENT_THEORY></metadata><data><meanElements><EPOCH>2025-10-06T21:57:18.528192</EPOCH><MEAN_MOTION>14.34216986</MEAN_MOTION><ECCENTRICITY>.00019484</ECCENTRICITY><INCLINATION>86.4020</INCLINATION><RA_OF_ASC_NODE>162.6312</RA_OF_ASC_NODE><ARG_OF_PERICENTER>80.7820</ARG_OF_PERICENTER><MEAN_ANOMALY>279.3596</MEAN_ANOMALY></meanElements><tleParameters><EPHEMERIS_TYPE>0</EPHEMERIS_TYPE><CLASSIFICATION_TYPE>U</CLASSIFICATION_TYPE><NORAD_CAT_ID>41924</NORAD_CAT_ID><ELEMENT_SET_NO>999</ELEMENT_SET_NO><REV_AT_EPOCH>45880</REV_AT_EPOCH><BSTAR>.11906703E-3</BSTAR><MEAN_MOTION_DOT>.353E-5</MEAN_MOTION_DOT><MEAN_MOTION_DDOT>0</MEAN_MOTION_DDOT></tleParameters></data></segment></body></omm>

</ndm>
